[{"OBJECT_NAME":"LEMUR-2-SQUIRRELCOMM","OBJECT_ID":"2024-149DQ","EPOCH":"2026-03-09T21:26:31.466400","MEAN_MOTION":15.05887962,"ECCENTRICITY":0.00061012,"INCLINATION":97.6754,"RA_OF_ASC_NODE":150.1976,"ARG_OF_PERICENTER":42.3481,"MEAN_ANOMALY":317.8216,"EPHEMERIS_TYPE":0,"CLASSIFICATION_TYPE":"U","NORAD_CAT_ID":60578,"ELEMENT_SET_NO":999,"REV_AT_EPOCH":8545,"BSTAR":0.00060830109,"MEAN_MOTION_DOT":8.786e-5,"MEAN_MOTION_DDOT":0},{"OBJECT_NAME":"STARLINK-34570","OBJECT_ID":"2025-152U","EPOCH":"2026-03-09T13:17:59.209728","MEAN_MOTION":15.05651495,"ECCENTRICITY":0.00016056,"INCLINATION":97.6024,"RA_OF_ASC_NODE":285.3323,"ARG_OF_PERICENTER":87.4298,"MEAN_ANOMALY":272.7113,"EPHEMERIS_TYPE":0,"CLASSIFICATION_TYPE":"U","NORAD_CAT_ID":64860,"ELEMENT_SET_NO":999,"REV_AT_EPOCH":3539,"BSTAR":0.00021329761,"MEAN_MOTION_DOT":3.018e-5,"MEAN_MOTION_DDOT":0}]
